     2              NAVIGATION DATA                         RINEX VERSION / TYPE
CCRINEXN V1.6.0 UX  CDDIS               01-JAN-25 23:53     PGM / RUN BY / DATE 
IGS BROADCAST EPHEMERIS FILE                                COMMENT             
    0.2794D-07  0.2235D-07 -0.1192D-06  0.5960D-07          ION ALPHA           
    0.1516D+06 -0.1966D+06 -0.6554D+05  0.3277D+06          ION BETA            
    0.372529029846D-08 0.532907051820D-14   503808     2347 DELTA-UTC: A0,A1,T,W
    18                                                      LEAP SECONDS        
                                                            END OF HEADER       
11 25  1  1  6  0  0.0-0.752539373934D-03 0.454747350886D-12 0.000000000000D+00
    0.170000000000D+03 0.110875000000D+03 0.455947563475D-08-0.113110428751D+01
    0.587292015552D-05 0.175177701749D-02 0.229291617870D-05 0.515359412003D+04
    0.280800000000D+06-0.558793544769D-08-0.181641232573D+01 0.279396772385D-07
    0.965785020960D+00 0.337812500000D+03-0.234791126370D+01-0.825927260328D-08
    0.301798285396D-09 0.100000000000D+01 0.234700000000D+04 0.000000000000D+00
    0.200000000000D+01 0.000000000000D+00-0.884756445885D-08 0.170000000000D+03
    0.273618000000D+06 0.400000000000D+01 0.000000000000D+00 0.000000000000D+00
12 25  1  1  6  0  0.0-0.561831053346D-03-0.227373675443D-11 0.000000000000D+00
    0.180000000000D+02-0.180937500000D+02 0.459054835762D-08 0.255525225521D+01
   -0.920146703720D-06 0.898307503667D-02 0.700354576111D-05 0.515376249123D+04
    0.280800000000D+06 0.763684511185D-07 0.239557672180D+01-0.447034835815D-07
    0.960905612776D+00 0.241437500000D+03 0.146391043219D+01-0.780032491484D-08
   -0.514664294977D-09 0.100000000000D+01 0.234700000000D+04 0.000000000000D+00
    0.200000000000D+01 0.000000000000D+00-0.125728547573D-07 0.180000000000D+02
    0.273618000000D+06 0.400000000000D+01 0.000000000000D+00 0.000000000000D+00
13 25  1  1  6  0  0.0 0.691995490342D-03 0.125055521494D-11 0.000000000000D+00
    0.127000000000D+03-0.760000000000D+02 0.398588031363D-08-0.517160286853D+00
   -0.399351119995D-05 0.880891643465D-02 0.106468796730D-04 0.515369382668D+04
    0.280800000000D+06-0.149011611938D-07 0.375533688108D+00 0.121071934700D-06
    0.973166626170D+00 0.179875000000D+03 0.970156672222D+00-0.776139472182D-08
    0.212508851847D-09 0.100000000000D+01 0.234700000000D+04 0.000000000000D+00
    0.200000000000D+01 0.000000000000D+00-0.111758708954D-07 0.127000000000D+03
    0.277818000000D+06 0.400000000000D+01 0.000000000000D+00 0.000000000000D+00
14 25  1  1  6  0  0.0 0.571462791413D-03 0.738964445190D-11 0.000000000000D+00
    0.780000000000D+02-0.146250000000D+02 0.512235622384D-08 0.241933194691D+01
   -0.705942511558D-06 0.513344071806D-02 0.637024641037D-05 0.515369297218D+04
    0.280800000000D+06-0.128522515297D-06 0.234769700033D+01-0.130385160446D-07
    0.944184331856D+00 0.246906250000D+03-0.286434058159D+01-0.816426864599D-08
   -0.423946230491D-09 0.100000000000D+01 0.234700000000D+04 0.000000000000D+00
    0.200000000000D+01 0.000000000000D+00-0.791624200000D-08 0.334000000000D+03
    0.279720000000D+06 0.400000000000D+01 0.000000000000D+00 0.000000000000D+00
15 25  1  1  6  0  0.0 0.246390234679D-03 0.454747350886D-11 0.000000000000D+00
    0.640000000000D+02-0.110625000000D+03 0.479127100424D-08-0.124488949688D+01
   -0.561401247978D-05 0.161149296910D-01 0.977516174316D-05 0.515374948311D+04
    0.280800000000D+06-0.726431608200D-07 0.730516686324D-01 0.417232513428D-06
    0.938033492792D+00 0.177750000000D+03 0.138657088923D+01-0.818319800590D-08
   -0.253581991279D-10 0.100000000000D+01 0.234700000000D+04 0.000000000000D+00
    0.200000000000D+01 0.000000000000D+00-0.102445483208D-07 0.640000000000D+02
    0.277398000000D+06 0.400000000000D+01 0.000000000000D+00 0.000000000000D+00
16 25  1  1  6  0  0.0-0.889180228114D-04 0.943600753089D-11 0.000000000000D+00
    0.440000000000D+02-0.684375000000D+01 0.469805283562D-08 0.774827661562D+00
   -0.186264514923D-06 0.144587745890D-01 0.730715692043D-05 0.515366335678D+04
    0.280800000000D+06-0.204890966415D-06 0.241316745882D+01 0.856816768646D-07
    0.960282244364D+00 0.241250000000D+03 0.864787077579D+00-0.808390815579D-08
   -0.643598237021D-09 0.100000000000D+01 0.234700000000D+04 0.000000000000D+00
    0.200000000000D+01 0.000000000000D+00-0.107102096081D-07 0.440000000000D+02
    0.279228000000D+06 0.400000000000D+01 0.000000000000D+00 0.000000000000D+00
17 25  1  1  6  0  0.0 0.494335778058D-03-0.168256519828D-10 0.000000000000D+00
    0.520000000000D+02 0.882500000000D+02 0.411517141341D-08-0.263211992225D+00
    0.437535345554D-05 0.133892187150D-01 0.113379210234D-04 0.515360734558D+04
    0.280800000000D+06-0.279396772385D-06-0.285006491642D+01-0.763684511185D-07
    0.966036369304D+00 0.166093750000D+03-0.124658702460D+01-0.787889961637D-08
   -0.171078554680D-09 0.100000000000D+01 0.234700000000D+04 0.000000000000D+00
    0.200000000000D+01 0.000000000000D+00-0.107102096081D-07 0.520000000000D+02
    0.273618000000D+06 0.400000000000D+01 0.000000000000D+00 0.000000000000D+00
18 25  1  1  6  0  0.0-0.659226439893D-03 0.102318153950D-11 0.000000000000D+00
    0.141000000000D+03 0.109968750000D+03 0.436446751188D-08-0.226774813231D+01
    0.562518835068D-05 0.479807751253D-02 0.214204192162D-05 0.515371528244D+04
    0.280800000000D+06 0.931322574616D-08-0.184364895794D+01-0.651925802231D-07
    0.974009328427D+00 0.349562500000D+03-0.293477760746D+01-0.813783897366D-08
    0.321799118511D-09 0.100000000000D+01 0.234700000000D+04 0.000000000000D+00
    0.200000000000D+01 0.000000000000D+00-0.838190317154D-08 0.653000000000D+03
    0.273618000000D+06 0.400000000000D+01 0.000000000000D+00 0.000000000000D+00
19 25  1  1  6  0  0.0 0.580834690481D-03 0.466116034659D-11 0.000000000000D+00
    0.660000000000D+02 0.980937500000D+02 0.406659796156D-08 0.160749327425D+01
    0.508874654770D-05 0.100169921061D-01 0.109542161226D-04 0.515360709000D+04
    0.280800000000D+06 0.335276126862D-07-0.280588747488D+01 0.180676579475D-06
    0.965242519734D+00 0.169375000000D+03 0.269968181670D+01-0.758674458979D-08
   -0.283583240952D-09 0.100000000000D+01 0.234700000000D+04 0.000000000000D+00
    0.200000000000D+01 0.000000000000D+00-0.153668224812D-07 0.660000000000D+02
    0.273621000000D+06 0.400000000000D+01 0.000000000000D+00 0.000000000000D+00
20 25  1  1  6  0  0.0 0.367425382137D-03-0.341060513165D-12 0.000000000000D+00
    0.710000000000D+02-0.670312500000D+02 0.490127558637D-08-0.188520597965D+01
   -0.334158539772D-05 0.383283291012D-02-0.987201929092D-07 0.515367231369D+04
    0.280800000000D+06 0.987201929092D-07-0.995250862365D+00 0.316649675369D-07
    0.956633276096D+00 0.377843750000D+03-0.237685857233D+01-0.849999691613D-08
   -0.707172313708D-10 0.100000000000D+01 0.234700000000D+04 0.000000000000D+00
    0.280000000000D+01 0.000000000000D+00-0.838190317154D-08 0.710000000000D+02
    0.273618000000D+06 0.400000000000D+01 0.000000000000D+00 0.000000000000D+00
23 25  1  1  6  0  0.0 0.395041424781D-03 0.761701812735D-11 0.000000000000D+00
    0.143000000000D+03-0.102468750000D+03 0.419088885306D-08 0.289786848422D+01
   -0.528618693352D-05 0.499127409421D-02 0.191666185856D-05 0.515363071251D+04
    0.280800000000D+06-0.968575477600D-07-0.840965889491D+00-0.745058059692D-07
    0.982350525974D+00 0.355031250000D+03-0.286704221385D+01-0.805426406386D-08
   -0.228223792151D-09 0.100000000000D+01 0.234700000000D+04 0.000000000000D+00
    0.200000000000D+01 0.000000000000D+00-0.838190317154D-08 0.911000000000D+03
    0.277608000000D+06 0.400000000000D+01 0.000000000000D+00 0.000000000000D+00
24 25  1  1  6  0  0.0-0.468411017209D-03 0.363797880709D-11 0.000000000000D+00
    0.620000000000D+02 0.199375000000D+02 0.512807074759D-08-0.211470897023D+01
    0.102259218693D-05 0.164140249835D-01 0.755116343498D-05 0.515368518257D+04
    0.280800000000D+06 0.173225998878D-06 0.117804061407D+01-0.126659870148D-06
    0.933823850929D+00 0.217437500000D+03 0.104300439544D+01-0.795461705601D-08
    0.635383609135D-09 0.100000000000D+01 0.234700000000D+04 0.000000000000D+00
    0.200000000000D+01 0.000000000000D+00 0.232830643654D-08 0.620000000000D+02
    0.274752000000D+06 0.400000000000D+01 0.000000000000D+00 0.000000000000D+00
25 25  1  1  6  0  0.0 0.497385859489D-03-0.568434188608D-12 0.000000000000D+00
    0.110000000000D+02-0.183750000000D+02 0.487341728311D-08 0.237509857070D+01
   -0.110268592834D-05 0.123008993687D-01 0.639446079731D-05 0.515368161964D+04
    0.280800000000D+06 0.502914190292D-07 0.230654434526D+01-0.175088644028D-06
    0.948912096878D+00 0.248062500000D+03 0.110635864492D+01-0.795676000242D-08
   -0.443589905872D-09 0.100000000000D+01 0.234700000000D+04 0.000000000000D+00
    0.200000000000D+01 0.000000000000D+00 0.558793544769D-08 0.110000000000D+02
    0.273618000000D+06 0.400000000000D+01 0.000000000000D+00 0.000000000000D+00
26 25  1  1  6  0  0.0-0.306288711727D-04-0.147792889038D-10 0.000000000000D+00
    0.790000000000D+02-0.137812500000D+02 0.552880172535D-08 0.158920961730D+01
   -0.681728124618D-06 0.979493733030D-02 0.627711415291D-05 0.515374432373D+04
    0.280800000000D+06-0.130385160446D-06 0.223998303265D+01 0.689178705216D-07
    0.929618888941D+00 0.245218750000D+03 0.602757951174D+00-0.843320841984D-08
   -0.490377569051D-09 0.100000000000D+01 0.234700000000D+04 0.000000000000D+00
    0.200000000000D+01 0.000000000000D+00 0.651925802231D-08 0.790000000000D+02
    0.274896000000D+06 0.400000000000D+01 0.000000000000D+00 0.000000000000D+00
